<?xml version="1.0" encoding="UTF-8"?>
<ndm xmlns:xsi="http://www.w3.org/2001/XMLSchema-instance" xsi:noNamespaceSchemaLocation="https://sanaregistry.org/r/ndmxml_unqualified/ndmxml-2.0.0-master-2.0.xsd">
<omm id="CCSDS_OMM_VERS" version="2.0">
<header><CREATION_DATE/><ORIGINATOR/></header><body><segment><metadata><OBJECT_NAME>ONEWEB-0340</OBJECT_NAME><OBJECT_ID>2021-083W</OBJECT_ID><CENTER_NAME>EARTH</CENTER_NAME><REF_FRAME>TEME</REF_FRAME><TIME_SYSTEM>UTC</TIME_SYSTEM><MEAN_ELEMENT_THEORY>SGP4</MEAN_ELEMENT_THEORY></metadata><data><meanElements><EPOCH>2026-01-19T11:48:34.544736</EPOCH><MEAN_MOTION>13.18686571</MEAN_MOTION><ECCENTRICITY>.00018575</ECCENTRICITY><INCLINATION>87.9191</INCLINATION><RA_OF_ASC_NODE>4.9726</RA_OF_ASC_NODE><ARG_OF_PERICENTER>85.2585</ARG_OF_PERICENTER><MEAN_ANOMALY>274.8760</MEAN_ANOMALY></meanElements><tleParameters><EPHEMERIS_TYPE>0</EPHEMERIS_TYPE><CLASSIFICATION_TYPE>U</CLASSIFICATION_TYPE><NORAD_CAT_ID>49206</NORAD_CAT_ID><ELEMENT_SET_NO>999</ELEMENT_SET_NO><REV_AT_EPOCH>21037</REV_AT_EPOCH><BSTAR>-.23048E-6</BSTAR><MEAN_MOTION_DOT>.13E-6</MEAN_MOTION_DOT><MEAN_MOTION_DDOT>0</MEAN_MOTION_DDOT></tleParameters></data></segment></body></omm>
<omm id="CCSDS_OMM_VERS" version="2.0">
<header><CREATION_DATE/><ORIGINATOR/></header><body><segment><metadata><OBJECT_NAME>ONEWEB-0341</OBJECT_NAME><OBJECT_ID>2021-083X</OBJECT_ID><CENTER_NAME>EARTH</CENTER_NAME><REF_FRAME>TEME</REF_FRAME><TIME_SYSTEM>UTC</TIME_SYSTEM><MEAN_ELEMENT_THEORY>SGP4</MEAN_ELEMENT_THEORY></metadata><data><meanElements><EPOCH>2026-01-19T10:08:49.691904</EPOCH><MEAN_MOTION>13.18685707</MEAN_MOTION><ECCENTRICITY>.00018069</ECCENTRICITY><INCLINATION>87.9188</INCLINATION><RA_OF_ASC_NODE>4.9970</RA_OF_ASC_NODE><ARG_OF_PERICENTER>102.7733</ARG_OF_PERICENTER><MEAN_ANOMALY>257.3601</MEAN_ANOMALY></meanElements><tleParameters><EPHEMERIS_TYPE>0</EPHEMERIS_TYPE><CLASSIFICATION_TYPE>U</CLASSIFICATION_TYPE><NORAD_CAT_ID>49207</NORAD_CAT_ID><ELEMENT_SET_NO>999</ELEMENT_SET_NO><REV_AT_EPOCH>21038</REV_AT_EPOCH><BSTAR>.32124607E-4</BSTAR><MEAN_MOTION_DOT>.26E-6</MEAN_MOTION_DOT><MEAN_MOTION_DDOT>0</MEAN_MOTION_DDOT></tleParameters></data></segment></body></omm>
<omm id="CCSDS_OMM_VERS" version="2.0">
<header><CREATION_DATE/><ORIGINATOR/></header><body><segment><metadata><OBJECT_NAME>ONEWEB-0342</OBJECT_NAME><OBJECT_ID>2021-083Y</OBJECT_ID><CENTER_NAME>EARTH</CENTER_NAME><REF_FRAME>TEME</REF_FRAME><TIME_SYSTEM>UTC</TIME_SYSTEM><MEAN_ELEMENT_THEORY>SGP4</MEAN_ELEMENT_THEORY></metadata><data><meanElements><EPOCH>2026-01-19T11:43:50.538432</EPOCH><MEAN_MOTION>13.20772503</MEAN_MOTION><ECCENTRICITY>.00015612</ECCENTRICITY><INCLINATION>87.9234</INCLINATION><RA_OF_ASC_NODE>304.1024</RA_OF_ASC_NODE><ARG_OF_PERICENTER>73.3370</ARG_OF_PERICENTER><MEAN_ANOMALY>286.7935</MEAN_ANOMALY></meanElements><tleParameters><EPHEMERIS_TYPE>0</EPHEMERIS_TYPE><CLASSIFICATION_TYPE>U</CLASSIFICATION_TYPE><NORAD_CAT_ID>49208</NORAD_CAT_ID><ELEMENT_SET_NO>999</ELEMENT_SET_NO><REV_AT_EPOCH>21715</REV_AT_EPOCH><BSTAR>.24856658E-3</BSTAR><MEAN_MOTION_DOT>.114E-5</MEAN_MOTION_DOT><MEAN_MOTION_DDOT>0</MEAN_MOTION_DDOT></tleParameters></data></segment></body></omm>
<omm id="CCSDS_OMM_VERS" version="2.0">
<header><CREATION_DATE/><ORIGINATOR/></header><body><segment><metadata><OBJECT_NAME>ONEWEB-0343</OBJECT_NAME><OBJECT_ID>2021-083Z</OBJECT_ID><CENTER_NAME>EARTH</CENTER_NAME><REF_FRAME>TEME</REF_FRAME><TIME_SYSTEM>UTC</TIME_SYSTEM><MEAN_ELEMENT_THEORY>SGP4</MEAN_ELEMENT_THEORY></metadata><data><meanElements><EPOCH>2026-01-19T12:09:57.439584</EPOCH><MEAN_MOTION>13.18687057</MEAN_MOTION><ECCENTRICITY>.00014132</ECCENTRICITY><INCLINATION>87.9191</INCLINATION><RA_OF_ASC_NODE>4.9738</RA_OF_ASC_NODE><ARG_OF_PERICENTER>100.8513</ARG_OF_PERICENTER><MEAN_ANOMALY>259.2778</MEAN_ANOMALY></meanElements><tleParameters><EPHEMERIS_TYPE>0</EPHEMERIS_TYPE><CLASSIFICATION_TYPE>U</CLASSIFICATION_TYPE><NORAD_CAT_ID>49209</NORAD_CAT_ID><ELEMENT_SET_NO>999</ELEMENT_SET_NO><REV_AT_EPOCH>21044</REV_AT_EPOCH><BSTAR>.20358471E-3</BSTAR><MEAN_MOTION_DOT>.93E-6</MEAN_MOTION_DOT><MEAN_MOTION_DDOT>0</MEAN_MOTION_DDOT></tleParameters></data></segment></body></omm>
<omm id="CCSDS_OMM_VERS" version="2.0">
<header><CREATION_DATE/><ORIGINATOR/></header><body><segment><metadata><OBJECT_NAME>ONEWEB-0344</OBJECT_NAME><OBJECT_ID>2021-083AA</OBJECT_ID><CENTER_NAME>EARTH</CENTER_NAME><REF_FRAME>TEME</REF_FRAME><TIME_SYSTEM>UTC</TIME_SYSTEM><MEAN_ELEMENT_THEORY>SGP4</MEAN_ELEMENT_THEORY></metadata><data><meanElements><EPOCH>2026-01-19T10:06:31.260960</EPOCH><MEAN_MOTION>13.13471020</MEAN_MOTION><ECCENTRICITY>.00017956</ECCENTRICITY><INCLINATION>87.8996</INCLINATION><RA_OF_ASC_NODE>349.8242</RA_OF_ASC_NODE><ARG_OF_PERICENTER>96.4362</ARG_OF_PERICENTER><MEAN_ANOMALY>263.6972</MEAN_ANOMALY></meanElements><tleParameters><EPHEMERIS_TYPE>0</EPHEMERIS_TYPE><CLASSIFICATION_TYPE>U</CLASSIFICATION_TYPE><NORAD_CAT_ID>49210</NORAD_CAT_ID><ELEMENT_SET_NO>999</ELEMENT_SET_NO><REV_AT_EPOCH>21136</REV_AT_EPOCH><BSTAR>.64398395E-4</BSTAR><MEAN_MOTION_DOT>.36E-6</MEAN_MOTION_DOT><MEAN_MOTION_DDOT>0</MEAN_MOTION_DDOT></tleParameters></data></segment></body></omm>
<omm id="CCSDS_OMM_VERS" version="2.0">
<header><CREATION_DATE/><ORIGINATOR/></header><body><segment><metadata><OBJECT_NAME>ONEWEB-0345</OBJECT_NAME><OBJECT_ID>2021-083AB</OBJECT_ID><CENTER_NAME>EARTH</CENTER_NAME><REF_FRAME>TEME</REF_FRAME><TIME_SYSTEM>UTC</TIME_SYSTEM><MEAN_ELEMENT_THEORY>SGP4</MEAN_ELEMENT_THEORY></metadata><data><meanElements><EPOCH>2026-01-19T15:23:23.852256</EPOCH><MEAN_MOTION>13.13471471</MEAN_MOTION><ECCENTRICITY>.00017301</ECCENTRICITY><INCLINATION>87.9003</INCLINATION><RA_OF_ASC_NODE>349.7432</RA_OF_ASC_NODE><ARG_OF_PERICENTER>95.1803</ARG_OF_PERICENTER><MEAN_ANOMALY>264.9524</MEAN_ANOMALY></meanElements><tleParameters><EPHEMERIS_TYPE>0</EPHEMERIS_TYPE><CLASSIFICATION_TYPE>U</CLASSIFICATION_TYPE><NORAD_CAT_ID>49211</NORAD_CAT_ID><ELEMENT_SET_NO>999</ELEMENT_SET_NO><REV_AT_EPOCH>21140</REV_AT_EPOCH><BSTAR>-.23693202E-3</BSTAR><MEAN_MOTION_DOT>-.74E-6</MEAN_MOTION_DOT><MEAN_MOTION_DDOT>0</MEAN_MOTION_DDOT></tleParameters></data></segment></body></omm>
<omm id="CCSDS_OMM_VERS" version="2.0">
<header><CREATION_DATE/><ORIGINATOR/></header><body><segment><metadata><OBJECT_NAME>ONEWEB-0346</OBJECT_NAME><OBJECT_ID>2021-083AC</OBJECT_ID><CENTER_NAME>EARTH</CENTER_NAME><REF_FRAME>TEME</REF_FRAME><TIME_SYSTEM>UTC</TIME_SYSTEM><MEAN_ELEMENT_THEORY>SGP4</MEAN_ELEMENT_THEORY></metadata><data><meanElements><EPOCH>2026-01-19T12:05:12.907104</EPOCH><MEAN_MOTION>13.18684916</MEAN_MOTION><ECCENTRICITY>.00024812</ECCENTRICITY><INCLINATION>87.9185</INCLINATION><RA_OF_ASC_NODE>4.9872</RA_OF_ASC_NODE><ARG_OF_PERICENTER>86.8729</ARG_OF_PERICENTER><MEAN_ANOMALY>273.2687</MEAN_ANOMALY></meanElements><tleParameters><EPHEMERIS_TYPE>0</EPHEMERIS_TYPE><CLASSIFICATION_TYPE>U</CLASSIFICATION_TYPE><NORAD_CAT_ID>49212</NORAD_CAT_ID><ELEMENT_SET_NO>999</ELEMENT_SET_NO><REV_AT_EPOCH>21038</REV_AT_EPOCH><BSTAR>.11170037E-4</BSTAR><MEAN_MOTION_DOT>.17E-6</MEAN_MOTION_DOT><MEAN_MOTION_DDOT>0</MEAN_MOTION_DDOT></tleParameters></data></segment></body></omm>
<omm id="CCSDS_OMM_VERS" version="2.0">
<header><CREATION_DATE/><ORIGINATOR/></header><body><segment><metadata><OBJECT_NAME>ONEWEB-0348</OBJECT_NAME><OBJECT_ID>2021-083AD</OBJECT_ID><CENTER_NAME>EARTH</CENTER_NAME><REF_FRAME>TEME</REF_FRAME><TIME_SYSTEM>UTC</TIME_SYSTEM><MEAN_ELEMENT_THEORY>SGP4</MEAN_ELEMENT_THEORY></metadata><data><meanElements><EPOCH>2026-01-19T11:30:11.475936</EPOCH><MEAN_MOTION>13.20770894</MEAN_MOTION><ECCENTRICITY>.00021022</ECCENTRICITY><INCLINATION>87.9231</INCLINATION><RA_OF_ASC_NODE>304.1079</RA_OF_ASC_NODE><ARG_OF_PERICENTER>88.2856</ARG_OF_PERICENTER><MEAN_ANOMALY>271.8518</MEAN_ANOMALY></meanElements><tleParameters><EPHEMERIS_TYPE>0</EPHEMERIS_TYPE><CLASSIFICATION_TYPE>U</CLASSIFICATION_TYPE><NORAD_CAT_ID>49213</NORAD_CAT_ID><ELEMENT_SET_NO>999</ELEMENT_SET_NO><REV_AT_EPOCH>21718</REV_AT_EPOCH><BSTAR>.15837088E-3</BSTAR><MEAN_MOTION_DOT>.77E-6</MEAN_MOTION_DOT><MEAN_MOTION_DDOT>0</MEAN_MOTION_DDOT></tleParameters></data></segment></body></omm>

</ndm>
