ONEWEB-0340             
1 49206U 21083W   26019.49206649  .00000013  00000+0 -23048-6 0  9990
2 49206  87.9191   4.9726 0001857  85.2585 274.8760 13.18686571210373
ONEWEB-0341             
1 49207U 21083X   26019.42279736  .00000026  00000+0  32125-4 0  9998
2 49207  87.9188   4.9970 0001806 102.7733 257.3601 13.18685707210386
ONEWEB-0342             
1 49208U 21083Y   26019.48877938  .00000114  00000+0  24857-3 0  9993
2 49208  87.9234 304.1024 0001561  73.3370 286.7935 13.20772503217154
ONEWEB-0343             
1 49209U 21083Z   26019.50691481  .00000093  00000+0  20358-3 0  9992
2 49209  87.9191   4.9738 0001413 100.8513 259.2778 13.18687057210446
ONEWEB-0344             
1 49210U 21083AA  26019.42119515  .00000036  00000+0  64398-4 0  9998
2 49210  87.8996 349.8242 0001795  96.4362 263.6972 13.13471020211369
ONEWEB-0345             
1 49211U 21083AB  26019.64124829 -.00000074  00000+0 -23693-3 0  9993
2 49211  87.9003 349.7432 0001730  95.1803 264.9524 13.13471471211407
ONEWEB-0346             
1 49212U 21083AC  26019.50362161  .00000017  00000+0  11170-4 0  9995
2 49212  87.9185   4.9872 0002481  86.8729 273.2687 13.18684916210389
ONEWEB-0348             
1 49213U 21083AD  26019.47929949  .00000077  00000+0  15837-3 0  9994
2 49213  87.9231 304.1079 0002102  88.2856 271.8518 13.20770894217189
